FALCONSAT-10            
1 58291U 23174AM  26068.70247784  .00006748  00000+0  25969-3 0  9991
2 58291  97.3865 145.7938 0008932 169.5942 190.5483 15.26670596129582
STARLINK-32541          
1 61916U 24207E   26068.00097239  .00039296  00000+0  14287-2 0  9992
2 61916  43.0043 289.3603 0002452 271.0814  88.9756 15.27606250 74576
