[{"OBJECT_NAME":"FALCONSAT-10","OBJECT_ID":"2023-174AM","EPOCH":"2026-03-09T16:51:34.085376","MEAN_MOTION":15.26670596,"ECCENTRICITY":0.00089318,"INCLINATION":97.3865,"RA_OF_ASC_NODE":145.7938,"ARG_OF_PERICENTER":169.5942,"MEAN_ANOMALY":190.5483,"EPHEMERIS_TYPE":0,"CLASSIFICATION_TYPE":"U","NORAD_CAT_ID":58291,"ELEMENT_SET_NO":999,"REV_AT_EPOCH":12958,"BSTAR":0.00025968794,"MEAN_MOTION_DOT":6.748e-5,"MEAN_MOTION_DDOT":0},{"OBJECT_NAME":"STARLINK-32541","OBJECT_ID":"2024-207E","EPOCH":"2026-03-09T00:01:24.014496","MEAN_MOTION":15.2760625,"ECCENTRICITY":0.00024528,"INCLINATION":43.0043,"RA_OF_ASC_NODE":289.3603,"ARG_OF_PERICENTER":271.0814,"MEAN_ANOMALY":88.9756,"EPHEMERIS_TYPE":0,"CLASSIFICATION_TYPE":"U","NORAD_CAT_ID":61916,"ELEMENT_SET_NO":999,"REV_AT_EPOCH":7457,"BSTAR":0.0014287403,"MEAN_MOTION_DOT":0.00039296,"MEAN_MOTION_DDOT":0}]
